[Satellite]
VERSION=1.1
NAME=ENVISAT
NICKNAME=ENVISAT
TLE1=1 27386U 02009A   15055.34976870  .00000090  00000-0  43918-4 0  9995
TLE2=2 27386  98.3479 119.0820 0000605  73.7506 286.3753 14.37789305679810
